[{"OBJECT_NAME":"SL-8 R/B","OBJECT_ID":"1991-006B","EPOCH":"2026-03-24T12:06:41.486112","MEAN_MOTION":13.77496469,"ECCENTRICITY":0.0022133,"INCLINATION":82.9453,"RA_OF_ASC_NODE":159.032,"ARG_OF_PERICENTER":357.4426,"MEAN_ANOMALY":13.2077,"EPHEMERIS_TYPE":0,"CLASSIFICATION_TYPE":"U","NORAD_CAT_ID":21088,"ELEMENT_SET_NO":999,"REV_AT_EPOCH":76611,"BSTAR":8.1736e-5,"MEAN_MOTION_DOT":9.7e-7,"MEAN_MOTION_DDOT":0},{"OBJECT_NAME":"OKEAN-3","OBJECT_ID":"1991-039A","EPOCH":"2026-03-24T08:58:37.411104","MEAN_MOTION":15.04893264,"ECCENTRICITY":0.0012409,"INCLINATION":82.5168,"RA_OF_ASC_NODE":322.6172,"ARG_OF_PERICENTER":282.1923,"MEAN_ANOMALY":77.7913,"EPHEMERIS_TYPE":0,"CLASSIFICATION_TYPE":"U","NORAD_CAT_ID":21397,"ELEMENT_SET_NO":999,"REV_AT_EPOCH":86724,"BSTAR":0.0001474,"MEAN_MOTION_DOT":2.115e-5,"MEAN_MOTION_DDOT":0},{"OBJECT_NAME":"COSMOS 2151","OBJECT_ID":"1991-042A","EPOCH":"2026-03-24T11:47:26.047680","MEAN_MOTION":15.00163254,"ECCENTRICITY":0.0012929,"INCLINATION":82.4943,"RA_OF_ASC_NODE":69.3934,"ARG_OF_PERICENTER":17.8843,"MEAN_ANOMALY":342.2833,"EPHEMERIS_TYPE":0,"CLASSIFICATION_TYPE":"U","NORAD_CAT_ID":21422,"ELEMENT_SET_NO":999,"REV_AT_EPOCH":86541,"BSTAR":0.00018441,"MEAN_MOTION_DOT":2.332e-5,"MEAN_MOTION_DDOT":0},{"OBJECT_NAME":"SL-14 R/B","OBJECT_ID":"1991-042B","EPOCH":"2026-03-24T09:51:31.063680","MEAN_MOTION":14.81844037,"ECCENTRICITY":0.0016832,"INCLINATION":82.4949,"RA_OF_ASC_NODE":206.38,"ARG_OF_PERICENTER":187.8775,"MEAN_ANOMALY":172.2177,"EPHEMERIS_TYPE":0,"CLASSIFICATION_TYPE":"U","NORAD_CAT_ID":21423,"ELEMENT_SET_NO":999,"REV_AT_EPOCH":85525,"BSTAR":6.0654e-5,"MEAN_MOTION_DOT":5.04e-6,"MEAN_MOTION_DDOT":0},{"OBJECT_NAME":"ERS-1","OBJECT_ID":"1991-050A","EPOCH":"2026-03-24T12:04:30.273024","MEAN_MOTION":14.39460092,"ECCENTRICITY":0.0032469,"INCLINATION":98.7871,"RA_OF_ASC_NODE":102.1095,"ARG_OF_PERICENTER":156.5943,"MEAN_ANOMALY":203.673,"EPHEMERIS_TYPE":0,"CLASSIFICATION_TYPE":"U","NORAD_CAT_ID":21574,"ELEMENT_SET_NO":999,"REV_AT_EPOCH":81786,"BSTAR":0.00011068,"MEAN_MOTION_DOT":3.01e-6,"MEAN_MOTION_DDOT":0},{"OBJECT_NAME":"ARIANE 40 R/B","OBJECT_ID":"1991-050F","EPOCH":"2026-03-24T09:07:24.679200","MEAN_MOTION":14.42903827,"ECCENTRICITY":0.0003799,"INCLINATION":98.1982,"RA_OF_ASC_NODE":135.0632,"ARG_OF_PERICENTER":48.5562,"MEAN_ANOMALY":311.5955,"EPHEMERIS_TYPE":0,"CLASSIFICATION_TYPE":"U","NORAD_CAT_ID":21610,"ELEMENT_SET_NO":999,"REV_AT_EPOCH":82111,"BSTAR":0.00010296,"MEAN_MOTION_DOT":3.02e-6,"MEAN_MOTION_DDOT":0},{"OBJECT_NAME":"INTERCOSMOS 25","OBJECT_ID":"1991-086A","EPOCH":"2026-03-24T08:25:56.860320","MEAN_MOTION":12.12048879,"ECCENTRICITY":0.1486711,"INCLINATION":82.6022,"RA_OF_ASC_NODE":301.1454,"ARG_OF_PERICENTER":85.3424,"MEAN_ANOMALY":291.5291,"EPHEMERIS_TYPE":0,"CLASSIFICATION_TYPE":"U","NORAD_CAT_ID":21819,"ELEMENT_SET_NO":999,"REV_AT_EPOCH":49846,"BSTAR":0.00028292,"MEAN_MOTION_DOT":1.481e-5,"MEAN_MOTION_DDOT":0},{"OBJECT_NAME":"SL-8 R/B","OBJECT_ID":"1992-008B","EPOCH":"2026-03-24T11:23:37.431456","MEAN_MOTION":13.75969592,"ECCENTRICITY":0.0035937,"INCLINATION":82.9225,"RA_OF_ASC_NODE":256.7767,"ARG_OF_PERICENTER":93.3989,"MEAN_ANOMALY":285.0308,"EPHEMERIS_TYPE":0,"CLASSIFICATION_TYPE":"U","NORAD_CAT_ID":21876,"ELEMENT_SET_NO":999,"REV_AT_EPOCH":71145,"BSTAR":-6.9074e-6,"MEAN_MOTION_DOT":9.0e-8,"MEAN_MOTION_DDOT":0},{"OBJECT_NAME":"SL-8 R/B","OBJECT_ID":"1992-020B","EPOCH":"2026-03-24T05:45:56.276352","MEAN_MOTION":13.75550401,"ECCENTRICITY":0.0027621,"INCLINATION":82.9313,"RA_OF_ASC_NODE":142.9588,"ARG_OF_PERICENTER":256.2199,"MEAN_ANOMALY":165.7521,"EPHEMERIS_TYPE":0,"CLASSIFICATION_TYPE":"U","NORAD_CAT_ID":21938,"ELEMENT_SET_NO":999,"REV_AT_EPOCH":70313,"BSTAR":1.9746e-5,"MEAN_MOTION_DOT":3.4e-7,"MEAN_MOTION_DDOT":0},{"OBJECT_NAME":"USA 81","OBJECT_ID":"1992-023A","EPOCH":"2026-03-24T09:34:12.861408","MEAN_MOTION":14.32372584,"ECCENTRICITY":0.0001971,"INCLINATION":85.0056,"RA_OF_ASC_NODE":122.9533,"ARG_OF_PERICENTER":68.652,"MEAN_ANOMALY":291.4883,"EPHEMERIS_TYPE":0,"CLASSIFICATION_TYPE":"U","NORAD_CAT_ID":21949,"ELEMENT_SET_NO":999,"REV_AT_EPOCH":9689,"BSTAR":5.5127e-5,"MEAN_MOTION_DOT":1.69e-6,"MEAN_MOTION_DDOT":0},{"OBJECT_NAME":"COSMOS 2219","OBJECT_ID":"1992-076A","EPOCH":"2026-03-24T10:43:16.472352","MEAN_MOTION":14.14092306,"ECCENTRICITY":0.0018126,"INCLINATION":71.0634,"RA_OF_ASC_NODE":347.2226,"ARG_OF_PERICENTER":185.8491,"MEAN_ANOMALY":174.2423,"EPHEMERIS_TYPE":0,"CLASSIFICATION_TYPE":"U","NORAD_CAT_ID":22219,"ELEMENT_SET_NO":999,"REV_AT_EPOCH":72046,"BSTAR":-7.5994e-5,"MEAN_MOTION_DOT":-1.92e-6,"MEAN_MOTION_DDOT":0},{"OBJECT_NAME":"SL-16 R/B","OBJECT_ID":"1992-076B","EPOCH":"2026-03-24T10:36:36.768672","MEAN_MOTION":14.16863376,"ECCENTRICITY":0.0010624,"INCLINATION":71.0006,"RA_OF_ASC_NODE":157.3007,"ARG_OF_PERICENTER":68.8698,"MEAN_ANOMALY":302.2042,"EPHEMERIS_TYPE":0,"CLASSIFICATION_TYPE":"U","NORAD_CAT_ID":22220,"ELEMENT_SET_NO":999,"REV_AT_EPOCH":72392,"BSTAR":9.8969e-5,"MEAN_MOTION_DOT":1.51e-6,"MEAN_MOTION_DDOT":0},{"OBJECT_NAME":"COSMOS 2221","OBJECT_ID":"1992-080A","EPOCH":"2026-03-24T11:36:53.388864","MEAN_MOTION":14.96258416,"ECCENTRICITY":0.0015286,"INCLINATION":82.5006,"RA_OF_ASC_NODE":264.9052,"ARG_OF_PERICENTER":138.8101,"MEAN_ANOMALY":221.4277,"EPHEMERIS_TYPE":0,"CLASSIFICATION_TYPE":"U","NORAD_CAT_ID":22236,"ELEMENT_SET_NO":999,"REV_AT_EPOCH":78300,"BSTAR":0.00016014,"MEAN_MOTION_DOT":1.837e-5,"MEAN_MOTION_DDOT":0},{"OBJECT_NAME":"SL-16 R/B","OBJECT_ID":"1992-093B","EPOCH":"2026-03-24T10:32:00.274848","MEAN_MOTION":14.15451785,"ECCENTRICITY":0.0006364,"INCLINATION":71.0235,"RA_OF_ASC_NODE":333.3059,"ARG_OF_PERICENTER":279.1313,"MEAN_ANOMALY":80.909,"EPHEMERIS_TYPE":0,"CLASSIFICATION_TYPE":"U","NORAD_CAT_ID":22285,"ELEMENT_SET_NO":999,"REV_AT_EPOCH":71524,"BSTAR":0.00019628,"MEAN_MOTION_DOT":3.36e-6,"MEAN_MOTION_DDOT":0},{"OBJECT_NAME":"COSMOS 2228","OBJECT_ID":"1992-094A","EPOCH":"2026-03-24T11:46:13.768032","MEAN_MOTION":14.97263447,"ECCENTRICITY":0.0016647,"INCLINATION":82.5181,"RA_OF_ASC_NODE":223.1382,"ARG_OF_PERICENTER":250.4949,"MEAN_ANOMALY":109.4476,"EPHEMERIS_TYPE":0,"CLASSIFICATION_TYPE":"U","NORAD_CAT_ID":22286,"ELEMENT_SET_NO":999,"REV_AT_EPOCH":77827,"BSTAR":0.00019455,"MEAN_MOTION_DOT":2.285e-5,"MEAN_MOTION_DDOT":0},{"OBJECT_NAME":"SL-16 R/B","OBJECT_ID":"1993-016B","EPOCH":"2026-03-24T13:14:04.171488","MEAN_MOTION":14.15305836,"ECCENTRICITY":0.0012356,"INCLINATION":71.0081,"RA_OF_ASC_NODE":183.9692,"ARG_OF_PERICENTER":294.8439,"MEAN_ANOMALY":65.1398,"EPHEMERIS_TYPE":0,"CLASSIFICATION_TYPE":"U","NORAD_CAT_ID":22566,"ELEMENT_SET_NO":999,"REV_AT_EPOCH":70427,"BSTAR":-7.4618e-5,"MEAN_MOTION_DOT":-1.93e-6,"MEAN_MOTION_DDOT":0},{"OBJECT_NAME":"COSMOS 2242","OBJECT_ID":"1993-024A","EPOCH":"2026-03-24T09:53:30.269760","MEAN_MOTION":14.96608599,"ECCENTRICITY":0.0014917,"INCLINATION":82.5159,"RA_OF_ASC_NODE":252.6298,"ARG_OF_PERICENTER":254.5676,"MEAN_ANOMALY":105.3899,"EPHEMERIS_TYPE":0,"CLASSIFICATION_TYPE":"U","NORAD_CAT_ID":22626,"ELEMENT_SET_NO":999,"REV_AT_EPOCH":78259,"BSTAR":0.00020963,"MEAN_MOTION_DOT":2.418e-5,"MEAN_MOTION_DDOT":0}]
