SL-8 R/B                
1 21088U 91006B   26083.50464683  .00000097  00000+0  81736-4 0  9994
2 21088  82.9453 159.0320 0022133 357.4426  13.2077 13.77496469766111
OKEAN-3                 
1 21397U 91039A   26083.37404411  .00002115  00000+0  14740-3 0  9994
2 21397  82.5168 322.6172 0012409 282.1923  77.7913 15.04893264867243
COSMOS 2151             
1 21422U 91042A   26083.49127370  .00002332  00000+0  18441-3 0  9999
2 21422  82.4943  69.3934 0012929  17.8843 342.2833 15.00163254865417
SL-14 R/B               
1 21423U 91042B   26083.41077620  .00000504  00000+0  60654-4 0  9997
2 21423  82.4949 206.3800 0016832 187.8775 172.2177 14.81844037855254
ERS-1                   
1 21574U 91050A   26083.50312816  .00000301  00000+0  11068-3 0  9991
2 21574  98.7871 102.1095 0032469 156.5943 203.6730 14.39460092817865
ARIANE 40 R/B           
1 21610U 91050F   26083.38014675  .00000302  00000+0  10296-3 0  9993
2 21610  98.1982 135.0632 0003799  48.5562 311.5955 14.42903827821119
INTERCOSMOS 25          
1 21819U 91086A   26083.35135255  .00001481  00000+0  28292-3 0  9992
2 21819  82.6022 301.1454 1486711  85.3424 291.5291 12.12048879498467
SL-8 R/B                
1 21876U 92008B   26083.47473879  .00000009  00000+0 -69074-5 0  9991
2 21876  82.9225 256.7767 0035937  93.3989 285.0308 13.75969592711452
SL-8 R/B                
1 21938U 92020B   26083.24023468  .00000034  00000+0  19746-4 0  9991
2 21938  82.9313 142.9588 0027621 256.2199 165.7521 13.75550401703132
USA 81                  
1 21949U 92023A   26083.39875997  .00000169  00000+0  55127-4 0  9996
2 21949  85.0056 122.9533 0001971  68.6520 291.4883 14.32372584 96897
COSMOS 2219             
1 22219U 92076A   26083.44671843 -.00000192  00000+0 -75994-4 0  9997
2 22219  71.0634 347.2226 0018126 185.8491 174.2423 14.14092306720461
SL-16 R/B               
1 22220U 92076B   26083.44209223  .00000151  00000+0  98969-4 0  9998
2 22220  71.0006 157.3007 0010624  68.8698 302.2042 14.16863376723926
COSMOS 2221             
1 22236U 92080A   26083.48395126  .00001837  00000+0  16014-3 0  9994
2 22236  82.5006 264.9052 0015286 138.8101 221.4277 14.96258416783009
SL-16 R/B               
1 22285U 92093B   26083.43889207  .00000336  00000+0  19628-3 0  9992
2 22285  71.0235 333.3059 0006364 279.1313  80.9090 14.15451785715246
COSMOS 2228             
1 22286U 92094A   26083.49043713  .00002285  00000+0  19455-3 0  9997
2 22286  82.5181 223.1382 0016647 250.4949 109.4476 14.97263447778274
SL-16 R/B               
1 22566U 93016B   26083.55143717 -.00000193  00000+0 -74618-4 0  9996
2 22566  71.0081 183.9692 0012356 294.8439  65.1398 14.15305836704272
COSMOS 2242             
1 22626U 93024A   26083.41215590  .00002418  00000+0  20963-3 0  9999
2 22626  82.5159 252.6298 0014917 254.5676 105.3899 14.96608599782594
